IRIDIUM 26              
1 24903U 97043A   25330.19952796  .00000501  00000+0  16142-3 0  9994
2 24903  86.3974  42.5133 0001941  95.5247 264.6172 14.37308616480012
IRIDIUM 22              
1 24907U 97043E   25330.19432766  .00000432  00000+0  14161-3 0  9990
2 24907  86.3979  46.1945 0002122  98.3082 261.8356 14.36104212480021
DUMMY MASS 1            
1 24925U 97048A   25329.98411309  .00000572  00000+0  60580-4 0  9992
2 24925  86.3351  60.4586 0004508 304.2240  55.8558 14.87160285529173
DUMMY MASS 2            
1 24926U 97048B   25329.90598275  .00000579  00000+0  61717-4 0  9993
2 24926  86.3352  62.1327 0005601 318.9336  41.1466 14.86910857528936
IRIDIUM 29              
1 24944U 97051A   25330.01934220  .00000574  00000+0  18859-3 0  9998
2 24944  86.3951  75.9631 0002254  96.5200 263.6254 14.36640079476503
IRIDIUM 33              
1 24946U 97051C   25330.04122633  .00000441  00000+0  14807-3 0  9992
2 24946  86.3866  75.2298 0005791 268.3365  91.7168 14.35018804475958
IRIDIUM 28              
1 24948U 97051E   25330.03002197  .00000526  00000+0  16908-3 0  9993
2 24948  86.3958  73.3812 0001542  96.0128 264.1246 14.37540700477093
IRIDIUM 36              
1 24967U 97056C   25330.17686971  .00000545  00000+0  17462-3 0  9999
2 24967  86.3946 104.9487 0001896  98.6753 261.4659 14.37760983475491
